[{"OBJECT_NAME":"GAOFEN-9 03","OBJECT_ID":"2020-039A","EPOCH":"2026-03-09T21:55:15.121344","MEAN_MOTION":15.30529116,"ECCENTRICITY":0.0013094,"INCLINATION":97.5219,"RA_OF_ASC_NODE":201.2158,"ARG_OF_PERICENTER":77.4533,"MEAN_ANOMALY":282.8172,"EPHEMERIS_TYPE":0,"CLASSIFICATION_TYPE":"U","NORAD_CAT_ID":45794,"ELEMENT_SET_NO":999,"REV_AT_EPOCH":31856,"BSTAR":0.00039258132,"MEAN_MOTION_DOT":0.00011544,"MEAN_MOTION_DDOT":0},{"OBJECT_NAME":"STARLINK-31004","OBJECT_ID":"2023-191W","EPOCH":"2026-03-09T04:05:03.720480","MEAN_MOTION":15.26740931,"ECCENTRICITY":0.00010168,"INCLINATION":43.0025,"RA_OF_ASC_NODE":106.2086,"ARG_OF_PERICENTER":256.7184,"MEAN_ANOMALY":103.3554,"EPHEMERIS_TYPE":0,"CLASSIFICATION_TYPE":"U","NORAD_CAT_ID":58528,"ELEMENT_SET_NO":999,"REV_AT_EPOCH":12539,"BSTAR":-2.6480248e-5,"MEAN_MOTION_DOT":-9.7e-6,"MEAN_MOTION_DDOT":0}]
